BEIDOU-2 IGSO-5         
1 37948U 11073A   26168.70024432 -.00000182  00000+0  00000+0 0  9998
2 37948  47.6768 271.5389 0113961 221.7300 116.5044  1.00272773 53134
LUCH-5A                 
1 37951U 11074B   26168.51294725 -.00000059  00000+0  00000+0 0  9999
2 37951   8.7555  73.8025 0002279  25.9326 157.6332  1.00270251 53057
BEIDOU-2 G5             
1 38091U 12008A   26168.76582659  .00000050  00000+0  00000+0 0  9996
2 38091   3.5755  69.6927 0009093 272.6783 257.9943  1.00271968 52373
BEIDOU-2 M3             
1 38250U 12018A   26168.18868205 -.00000073  00000+0  00000+0 0  9990
2 38250  55.7579 304.8755 0020113 273.8659  85.8906  1.86229716 95942
BEIDOU-2 M4             
1 38251U 12018B   26167.58401999 -.00000071  00000+0  00000+0 0  9995
2 38251  55.6586 304.1100 0011292 275.7806  84.0759  1.86229375 95937
SES-5                   
1 38652U 12036A   26168.11356269  .00000030  00000+0  00000+0 0  9993
2 38652   0.0486 314.5575 0001759 131.9060 224.7707  1.00270066 44454
BEIDOU-2 M6             
1 38775U 12050B   26168.36769197 -.00000052  00000+0  00000+0 0  9995
2 38775  56.5444  62.8883 0013681 357.4403   2.5943  1.86230860 93313
GSAT-10                 
1 38779U 12051B   26168.41421902 -.00000169  00000+0  00000+0 0  9994
2 38779   0.0798 262.4016 0007810 185.0028  50.3859  1.00269883 50104
NAVSTAR 67 (USA 239)    
1 38833U 12053A   26168.81475344  .00000040  00000+0  00000+0 0  9997
2 38833  53.5862 143.5736 0180336  65.7640 296.0730  2.00567437 99452
GSAT0103 (GALILEO-FM3)  
1 38857U 12055A   26168.47561803 -.00000011  00000+0  00000+0 0  9992
2 38857  55.8068 101.5377 0004772 306.3432  53.5821  1.70473345 85012
BEIDOU-2 G6             
1 38953U 12059A   26168.86460605 -.00000183  00000+0  00000+0 0  9994
2 38953   4.4232  73.5129 0009595 324.1649 263.7310  1.00271808 49911
LUCH-5B                 
1 38977U 12061A   26168.39435308 -.00000147  00000+0  00000+0 0  9993
2 38977  10.4853  49.8784 0002525 152.6380 188.8250  1.00272012 49602
COSMOS 2485 [GLONASS-M] 
1 39155U 13019A   26167.91000455 -.00000020  00000+0  00000+0 0  9994
2 39155  65.4195  73.6140 0023135 234.1379 125.6814  2.13103258102273
NAVSTAR 68 (USA 242)    
1 39166U 13023A   26168.18317436 -.00000027  00000+0  00000+0 0  9998
2 39166  54.5040 268.9738 0141542  51.0481 310.2424  2.00563399 95887
IRNSS-1A                
1 39199U 13034A   26160.59779131  .00000070  00000+0  00000+0 0  9994
2 39199  35.7049  63.9797 0017411 184.2474 279.8453  1.00272948 47299
NAVSTAR 69 (USA 248)    
1 39533U 14008A   26168.68338745  .00000044  00000+0  00000+0 0  9999
2 39533  53.6547 149.2994 0084228 231.2860 127.9302  2.00559761 89690
ASTRA 5B                
1 39617U 14011B   26167.97464670  .00000134  00000+0  00000+0 0  9994
2 39617   0.0707 307.1426 0001863 147.0318 185.4434  1.00272224 44666
COSMOS 2492 [GLONASS-M] 
1 39620U 14012A   26167.86886597 -.00000054  00000+0  00000+0 0  9995
2 39620  65.2979 313.9469 0010402 324.9131  35.0034  2.13103188 95236
IRNSS-1B                
1 39635U 14017A   26168.76521992  .00000118  00000+0  00000+0 0  9991
2 39635  28.9211 240.3934 0023110 190.0096 166.2505  1.00276545 44797
LUCH-5V                 
1 39727U 14023A   26168.77300079 -.00000277  00000+0  00000+0 0  9999
2 39727   5.1342  69.7361 0001847  50.3215 158.9565  1.00274166 44366
NAVSTAR 70 (USA 251)    
1 39741U 14026A   26167.96172325 -.00000084  00000+0  00000+0 0  9995
2 39741  56.4984 331.5261 0038167 326.5610  33.1892  2.00560889 88539
COSMOS 2500 [GLONASS-M] 
1 40001U 14032A   26168.50788557 -.00000054  00000+0  00000+0 0  9991
2 40001  65.2323 313.6727 0007352 184.6854 175.2946  2.13105691 93464
NAVSTAR 71 (USA 256)    
1 40105U 14045A   26168.05349414 -.00000021  00000+0  00000+0 0  9999
2 40105  55.3532  88.4703 0033283 118.2771 242.0574  2.00558324 86075
GSAT0201 (GALILEO 5)    
1 40128U 14050A   26168.41693638 -.00000052  00000+0  00000+0 0  9994
2 40128  48.8753 273.4270 1674557 179.4035 180.8790  1.85519962 78320
GSAT0202 (GALILEO 6)    
1 40129U 14050B   26168.13349217 -.00000048  00000+0  00000+0 0  9990
2 40129  48.8923 272.5241 1675793 180.1173 179.8932  1.85520514 80484
IRNSS-1C                
1 40269U 14061A   26168.77066078 -.00000169  00000+0  00000+0 0  9992
2 40269   6.5191  88.9202 0022710   2.5065 175.0010  1.00269240 42693
NAVSTAR 72 (USA 258)    
1 40294U 14068A   26167.92344486 -.00000073  00000+0  00000+0 0  9999
2 40294  56.9874  30.9648 0067051  70.5842 290.1982  2.00576071 85209
COSMOS 2501 [GLONASS-K] 
1 40315U 14075A   26168.30070612  .00000063  00000+0  00000+0 0  9999
2 40315  63.6163 190.3680 0022630 212.5057 147.4049  2.13101233 89857
NAVSTAR 73 (USA 260)    
1 40534U 15013A   26168.06245102  .00000048  00000+0  00000+0 0  9999
2 40534  53.1679 204.1827 0109520  40.1252 320.7503  2.00551338 81820
GSAT0203 (GALILEO 7)    
1 40544U 15017A   26166.45306799 -.00000083  00000+0  00000+0 0  9995
2 40544  56.7863 341.6427 0002092 278.6810  81.2938  1.70475984 69175
GSAT0204 (GALILEO 8)    
1 40545U 15017B   26165.53569013 -.00000079  00000+0  00000+0 0  9999
2 40545  56.7953 341.6863 0001910 248.0709 111.9109  1.70475571 32203
